{
    "week": 296,
    "satellites": [
        {
            "Name": "BEIDOU-2 G6 (C02)",
            "Line1": "1 38953U 12059A   24345.03811128 -.00000159  00000+0  00000+0 0  9991",
            "Line2": "2 38953   3.0086  79.0713 0007656 287.6306 170.3285  1.00269999 44492",
            "SatelliteNumber": "38953",
            "Classification": "U",
            "LaunchYear": "12",
            "LaunchNumber": "059",
            "PieceOfLaunch": "A",
            "EpochYear": "24",
            "EpochDay": 345.03811128,
            "FirstDerivativeMeanMotion": -1.59e-06,
            "SecondDerivativeMeanMotion": "00000+0",
            "BSTAR": "00000+0",
            "SetNumber": "999",
            "Inclination": 3.0086,
            "RAAN": 79.0713,
            "Eccentricity": 0.0007656,
            "ArgumentOfPerigee": 287.6306,
            "MeanAnomaly": 170.3285,
            "MeanMotion": 1.00269999,
            "RevolutionNumber": "4449"
        },
        {
            "Name": "BEIDOU-3S IGSO-1S (C31)",
            "Line1": "1 40549U 15019A   24344.84979984 -.00000194  00000+0  00000+0 0  9996",
            "Line2": "2 40549  50.2476 302.1098 0034973 198.7764 340.3188  1.00264697 35504",
            "SatelliteNumber": "40549",
            "Classification": "U",
            "LaunchYear": "15",
            "LaunchNumber": "019",
            "PieceOfLaunch": "A",
            "EpochYear": "24",
            "EpochDay": 344.84979984,
            "FirstDerivativeMeanMotion": -1.94e-06,
            "SecondDerivativeMeanMotion": "00000+0",
            "BSTAR": "00000+0",
            "SetNumber": "999",
            "Inclination": 50.2476,
            "RAAN": 302.1098,
            "Eccentricity": 0.0034973,
            "ArgumentOfPerigee": 198.7764,
            "MeanAnomaly": 340.3188,
            "MeanMotion": 1.00264697,
            "RevolutionNumber": "3550"
        },
        {
            "Name": "BEIDOU-3S M2S (C58)",
            "Line1": "1 40748U 15037A   24344.11040253 -.00000058  00000+0  00000+0 0  9994",
            "Line2": "2 40748  55.3471 321.0789 0012844 262.7358  97.1201  1.86228975 63784",
            "SatelliteNumber": "40748",
            "Classification": "U",
            "LaunchYear": "15",
            "LaunchNumber": "037",
            "PieceOfLaunch": "A",
            "EpochYear": "24",
            "EpochDay": 344.11040253,
            "FirstDerivativeMeanMotion": -5.8e-07,
            "SecondDerivativeMeanMotion": "00000+0",
            "BSTAR": "00000+0",
            "SetNumber": "999",
            "Inclination": 55.3471,
            "RAAN": 321.0789,
            "Eccentricity": 0.0012844,
            "ArgumentOfPerigee": 262.7358,
            "MeanAnomaly": 97.1201,
            "MeanMotion": 1.86228975,
            "RevolutionNumber": "6378"
        },
        {
            "Name": "BEIDOU-3S M1S (C57)",
            "Line1": "1 40749U 15037B   24344.38377819 -.00000060  00000+0  00000+0 0  9998",
            "Line2": "2 40749  55.3495 321.0562 0004450 324.7016  35.2704  1.86227402 63790",
            "SatelliteNumber": "40749",
            "Classification": "U",
            "LaunchYear": "15",
            "LaunchNumber": "037",
            "PieceOfLaunch": "B",
            "EpochYear": "24",
            "EpochDay": 344.38377819,
            "FirstDerivativeMeanMotion": -6e-07,
            "SecondDerivativeMeanMotion": "00000+0",
            "BSTAR": "00000+0",
            "SetNumber": "999",
            "Inclination": 55.3495,
            "RAAN": 321.0562,
            "Eccentricity": 0.000445,
            "ArgumentOfPerigee": 324.7016,
            "MeanAnomaly": 35.2704,
            "MeanMotion": 1.86227402,
            "RevolutionNumber": "6379"
        },
        {
            "Name": "BEIDOU-3S IGSO-2S (C56)",
            "Line1": "1 40938U 15053A   24344.75455014 -.00000158  00000+0  00000+0 0  9999",
            "Line2": "2 40938  50.0850 265.3520 0051782 188.7517 352.6759  1.00265357 33795",
            "SatelliteNumber": "40938",
            "Classification": "U",
            "LaunchYear": "15",
            "LaunchNumber": "053",
            "PieceOfLaunch": "A",
            "EpochYear": "24",
            "EpochDay": 344.75455014,
            "FirstDerivativeMeanMotion": -1.58e-06,
            "SecondDerivativeMeanMotion": "00000+0",
            "BSTAR": "00000+0",
            "SetNumber": "999",
            "Inclination": 50.085,
            "RAAN": 265.352,
            "Eccentricity": 0.0051782,
            "ArgumentOfPerigee": 188.7517,
            "MeanAnomaly": 352.6759,
            "MeanMotion": 1.00265357,
            "RevolutionNumber": "3379"
        },
        {
            "Name": "BEIDOU-2 IGSO-6 (C13)",
            "Line1": "1 41434U 16021A   24343.90653128 -.00000174  00000+0  00000+0 0  9997",
            "Line2": "2 41434  59.4353  43.5937 0055180 225.9806 231.7342  1.00280420 31912",
            "SatelliteNumber": "41434",
            "Classification": "U",
            "LaunchYear": "16",
            "LaunchNumber": "021",
            "PieceOfLaunch": "A",
            "EpochYear": "24",
            "EpochDay": 343.90653128,
            "FirstDerivativeMeanMotion": -1.74e-06,
            "SecondDerivativeMeanMotion": "00000+0",
            "BSTAR": "00000+0",
            "SetNumber": "999",
            "Inclination": 59.4353,
            "RAAN": 43.5937,
            "Eccentricity": 0.005518,
            "ArgumentOfPerigee": 225.9806,
            "MeanAnomaly": 231.7342,
            "MeanMotion": 1.0028042,
            "RevolutionNumber": "3191"
        },
        {
            "Name": "BEIDOU-2 G7 (C03)",
            "Line1": "1 41586U 16037A   24344.90042260 -.00000338  00000+0  00000+0 0  9994",
            "Line2": "2 41586   1.8000  67.3807 0007337 341.5779 104.8913  1.00269752  1337",
            "SatelliteNumber": "41586",
            "Classification": "U",
            "LaunchYear": "16",
            "LaunchNumber": "037",
            "PieceOfLaunch": "A",
            "EpochYear": "24",
            "EpochDay": 344.9004226,
            "FirstDerivativeMeanMotion": -3.38e-06,
            "SecondDerivativeMeanMotion": "00000+0",
            "BSTAR": "00000+0",
            "SetNumber": "999",
            "Inclination": 1.8,
            "RAAN": 67.3807,
            "Eccentricity": 0.0007337,
            "ArgumentOfPerigee": 341.5779,
            "MeanAnomaly": 104.8913,
            "MeanMotion": 1.00269752,
            "RevolutionNumber": "133"
        },
        {
            "Name": "BEIDOU-3 M1 (C19)",
            "Line1": "1 43001U 17069A   24343.92215463 -.00000017  00000+0  00000+0 0  9996",
            "Line2": "2 43001  56.2072  81.4501 0008833 296.6518  63.2624  1.86230941 48267",
            "SatelliteNumber": "43001",
            "Classification": "U",
            "LaunchYear": "17",
            "LaunchNumber": "069",
            "PieceOfLaunch": "A",
            "EpochYear": "24",
            "EpochDay": 343.92215463,
            "FirstDerivativeMeanMotion": -1.7e-07,
            "SecondDerivativeMeanMotion": "00000+0",
            "BSTAR": "00000+0",
            "SetNumber": "999",
            "Inclination": 56.2072,
            "RAAN": 81.4501,
            "Eccentricity": 0.0008833,
            "ArgumentOfPerigee": 296.6518,
            "MeanAnomaly": 63.2624,
            "MeanMotion": 1.86230941,
            "RevolutionNumber": "4826"
        },
        {
            "Name": "BEIDOU-3 M2 (C20)",
            "Line1": "1 43002U 17069B   24344.39671984 -.00000022  00000+0  00000+0 0  9999",
            "Line2": "2 43002  56.2072  81.4701 0006179 324.1424  35.8189  1.86230795 48262",
            "SatelliteNumber": "43002",
            "Classification": "U",
            "LaunchYear": "17",
            "LaunchNumber": "069",
            "PieceOfLaunch": "B",
            "EpochYear": "24",
            "EpochDay": 344.39671984,
            "FirstDerivativeMeanMotion": -2.2e-07,
            "SecondDerivativeMeanMotion": "00000+0",
            "BSTAR": "00000+0",
            "SetNumber": "999",
            "Inclination": 56.2072,
            "RAAN": 81.4701,
            "Eccentricity": 0.0006179,
            "ArgumentOfPerigee": 324.1424,
            "MeanAnomaly": 35.8189,
            "MeanMotion": 1.86230795,
            "RevolutionNumber": "4826"
        },
        {
            "Name": "BEIDOU-3 M7 (C27)",
            "Line1": "1 43107U 18003A   24344.14421309 -.00000060  00000+0  00000+0 0  9993",
            "Line2": "2 43107  54.8055 321.5917 0002571  56.6385 303.3887  1.86232239 47010",
            "SatelliteNumber": "43107",
            "Classification": "U",
            "LaunchYear": "18",
            "LaunchNumber": "003",
            "PieceOfLaunch": "A",
            "EpochYear": "24",
            "EpochDay": 344.14421309,
            "FirstDerivativeMeanMotion": -6e-07,
            "SecondDerivativeMeanMotion": "00000+0",
            "BSTAR": "00000+0",
            "SetNumber": "999",
            "Inclination": 54.8055,
            "RAAN": 321.5917,
            "Eccentricity": 0.0002571,
            "ArgumentOfPerigee": 56.6385,
            "MeanAnomaly": 303.3887,
            "MeanMotion": 1.86232239,
            "RevolutionNumber": "4701"
        }
    ]
}